      3.04          N: GNSS NAV DATA    C                   RINEX VERSION / TYPE
emacs               Beeblebrox          20220822 185328 UTC PGM / RUN BY / DATE
Bogus data intended to be used for round-trip tests         COMMENT
BDUT  -.9313225746D-09  .976996262D-14     14  435        0 TIME SYSTEM CORR
                                                            END OF HEADER
C01 2014 05 10 00 00 00  .123400000000D+04  .123500000000D+04  .123600000000D+04
      .170000000000D+02  .123800000000D+04  .123900000000D+04  .124000000000D+04
      .124100000000D+04  .124200000000D+04  .124300000000D+04  .124400000000D+04
      .124500000000D+04  .124600000000D+04  .124700000000D+04  .124800000000D+04
      .124900000000D+04  .125000000000D+04  .125100000000D+04  .125200000000D+04
      .125300000000D+04  .000000000000D+00  .100000000000D+01  .000000000000D+00
      .819200000000D+04  .100000000000D+01  .125900000000D+04  .126000000000D+04
      .126100000000D+04  .270000000000D+02
